H1 CPF  1  HTS 2022  9 20 12  7631 ajisai           NONE
H2  8606101 1500    16908 2022 09 20  0  0  0 2022 09 25  0  0  0   240 1 1  0 0 0
H5  1.0100 
H9 
10 0 59844  21840.00000  0     559380.460   -7489100.508   -2320756.876
10 0 59844  22080.00000  0    1578377.018   -7626197.704   -1066241.818
10 0 59844  22320.00000  0    2524303.691   -7440531.477     238631.347
10 0 59844  22560.00000  0    3364061.933   -6937658.560    1532232.495
10 0 59844  22800.00000  0    4069142.199   -6137021.074    2753488.928
10 0 59844  23040.00000  0    4616509.703   -5071157.954    3844821.445
10 0 59844  23280.00000  0    4989241.947   -3784310.953    4754882.678
10 0 59844  23520.00000  0    5176916.512   -2330504.896    5440968.076
10 0 59844  23760.00000  0    5175754.358    -771199.453    5870988.628
10 0 59844  24000.00000  0    4988534.540     827370.647    6024922.442
10 0 59844  24240.00000  0    4624306.403    2397042.068    5895696.282
10 0 59844  24480.00000  0    4097931.049    3870639.843    5489478.324
10 0 59844  24720.00000  0    3429477.632    5184858.045    4825379.051
10 0 59844  24960.00000  0    2643493.019    6282996.990    3934572.037
10 0 59844  25200.00000  0    1768162.451    7117447.063    2858864.933
10 0 59844  25440.00000  0     834378.014    7651812.029    1648770.162
10 0 59844  25680.00000  0    -125267.321    7862561.475     361149.824
10 0 59844  25920.00000  0   -1077529.975    7740120.357    -943454.824
10 0 59844  26160.00000  0   -1989579.579    7289338.337   -2203683.060
10 0 59844  26400.00000  0   -2830046.159    6529300.385   -3360265.312
10 0 59844  26640.00000  0   -3570011.201    5492481.191   -4358826.946
10 0 59844  26880.00000  0   -4183909.588    4223299.922   -5152441.866
10 0 59844  27120.00000  0   -4650321.086    2776156.720   -5703817.287
10 0 59844  27360.00000  0   -4952637.920    1213053.498   -5987017.425
10 0 59844  27600.00000  0   -5079600.183    -399093.696   -5988660.073
10 0 59844  27840.00000  0   -5025691.063   -1991336.864   -5708542.194
10 0 59844  28080.00000  0   -4791386.261   -3495659.987   -5159672.256
10 0 59844  28320.00000  0   -4383248.028   -4847913.719   -4367704.505
10 0 59844  28560.00000  0   -3813845.482   -5990606.303   -3369786.742
10 0 59844  28800.00000  0   -3101484.866   -6875428.044   -2212856.344
10 0 59844  29040.00000  0   -2269738.560   -7465388.098    -951447.857
10 0 59844  29280.00000  0   -1346768.979   -7736448.790     354895.388
10 0 59844  29520.00000  0    -364458.009   -7678557.847    1644477.728
10 0 59844  29760.00000  0     642629.030   -7296020.383    2856421.121
10 0 59844  30000.00000  0    1638409.291   -6607194.524    3933591.399
10 0 59844  30240.00000  0    2586532.437   -5643530.697    4825319.939
10 0 59844  30480.00000  0    3451660.069   -4448028.861    5489776.438
10 0 59844  30720.00000  0    4200728.936   -3073220.135    5895891.937
10 0 59844  30960.00000  0    4804165.548   -1578784.107    6024761.986
10 0 59844  31200.00000  0    5237020.889     -28910.498    5870482.509
10 0 59844  31440.00000  0    5479986.804    1510482.223    5440390.562
10 0 59844  31680.00000  0    5520260.422    2974555.148    4754711.479
10 0 59844  31920.00000  0    5352226.718    4302282.930    3845629.932
10 0 59844  32160.00000  0    4977919.284    5439012.308    2755813.640
10 0 59844  32400.00000  0    4407219.015    6338741.789    1536443.077
10 0 59844  32640.00000  0    3657756.532    6966019.305     244823.987
10 0 59844  32880.00000  0    2754498.137    7297363.464   -1058309.984
10 0 59844  33120.00000  0    1729013.205    7322137.332   -2311669.214
10 0 59844  33360.00000  0     618442.914    7042837.209   -3456309.820
10 0 59844  33600.00000  0    -535794.926    6474790.119   -4438419.528
10 0 59844  33840.00000  0   -1689515.527    5645287.096   -5211845.872
10 0 59844  34080.00000  0   -2797429.415    4592214.224   -5740244.693
10 0 59844  34320.00000  0   -3814893.276    3362266.512   -5998758.116
10 0 59844  34560.00000  0   -4699688.105    2008838.918   -5975159.866
10 0 59844  34800.00000  0   -5413765.976     589689.326   -5670428.536
10 0 59844  35040.00000  0   -5924904.489    -835533.601   -5098727.038
10 0 59844  35280.00000  0   -6208204.448   -2207805.496   -4286785.567
10 0 59844  35520.00000  0   -6247361.086   -3471192.642   -3272699.178
10 0 59844  35760.00000  0   -6035632.615   -4575169.821   -2104175.785
10 0 59844  36000.00000  0   -5576436.207   -5476687.607    -836303.290
10 0 59844  36240.00000  0   -4883516.227   -6141892.320     471066.108
10 0 59844  36480.00000  0   -3980649.148   -6547412.588    1756188.354
10 0 59844  36720.00000  0   -2900877.688   -6681144.228    2958403.233
10 0 59844  36960.00000  0   -1685305.991   -6542501.257    4021045.411
10 0 59844  37200.00000  0    -381515.645   -6142144.340    4894137.187
10 0 59844  37440.00000  0     958326.615   -5501225.279    5536731.046
10 0 59844  37680.00000  0    2279580.099   -4650206.927    5918792.244
10 0 59844  37920.00000  0    3527363.488   -3627343.715    6022547.987
10 0 59844  38160.00000  0    4648826.402   -2476915.726    5843265.903
10 0 59844  38400.00000  0    5595385.926   -1247293.936    5389447.072
10 0 59844  38640.00000  0    6324844.741      11094.443    4682425.217
10 0 59844  38880.00000  0    6803301.220    1247820.504    3755385.417
10 0 59844  39120.00000  0    7006771.323    2414454.296    2651840.844
10 0 59844  39360.00000  0    6922438.405    3466442.710    1423621.503
10 0 59844  39600.00000  0    6549453.044    4364792.436     128455.084
10 0 59844  39840.00000  0    5899219.801    5077486.815   -1172751.989
10 0 59844  40080.00000  0    4995135.927    5580576.819   -2418797.688
10 0 59844  40320.00000  0    3871781.487    5858901.906   -3551082.896
10 0 59844  40560.00000  0    2573597.215    5906422.148   -4516377.953
10 0 59844  40800.00000  0    1153107.960    5726166.121   -5269320.699
10 0 59844  41040.00000  0    -331224.868    5329818.777   -5774527.607
10 0 59844  41280.00000  0   -1817424.877    4736992.574   -6008227.925
10 0 59844  41520.00000  0   -3242596.466    3974233.412   -5959358.942
10 0 59844  41760.00000  0   -4545593.154    3073816.100   -5630084.393
10 0 59844  42000.00000  0   -5669660.436    2072383.446   -5035719.898
10 0 59844  42240.00000  0   -6564954.411    1009475.644   -4204063.025
10 0 59844  42480.00000  0   -7190828.787     -74003.272   -3174142.176
10 0 59844  42720.00000  0   -7517779.882   -1137333.408   -1994421.919
10 0 59844  42960.00000  0   -7528935.111   -2141489.107    -720529.573
10 0 59844  43200.00000  0   -7220984.282   -3050546.971     587392.955
10 0 59844  43440.00000  0   -6604490.873   -3832932.937    1867575.354
10 0 59844  43680.00000  0   -5703552.372   -4462460.673    3059594.168
10 0 59844  43920.00000  0   -4554816.833   -4919118.663    4107273.280
10 0 59844  44160.00000  0   -3205914.301   -5189582.435    4961351.311
10 0 59844  44400.00000  0   -1713396.255   -5267451.002    5581782.896
10 0 59844  44640.00000  0    -140294.418   -5153227.625    5939576.652
10 0 59844  44880.00000  0    1446591.848   -4854069.863    6018100.853
10 0 59844  45120.00000  0    2979556.194   -4383337.019    5813808.209
10 0 59844  45360.00000  0    4392877.078   -3759976.304    5336369.542
10 0 59844  45600.00000  0    5625642.773   -3007775.234    4608220.793
10 0 59844  45840.00000  0    6624403.878   -2154496.214    3663536.394
10 0 59844  46080.00000  0    7345539.195   -1230913.062    2546659.342
10 0 59844  46320.00000  0    7757222.638    -269776.266    1310048.802
10 0 59844  46560.00000  0    7840894.435     695267.807      11830.314
10 0 59844  46800.00000  0    7592149.548    1630773.419   -1286943.097
10 0 59844  47040.00000  0    7020983.995    2504571.389   -2525182.669
10 0 59844  47280.00000  0    6151382.815    3286786.889   -3644657.120
10 0 59844  47520.00000  0    5020272.353    3950767.089   -4592741.527
10 0 59844  47760.00000  0    3675894.201    4473890.921   -5324883.927
10 0 59844  48000.00000  0    2175692.305    4838244.236   -5806675.488
10 0 59844  48240.00000  0     583816.203    5031154.257   -6015440.072
10 0 59844  48480.00000  0   -1031648.455    5045578.016   -5941280.991
10 0 59844  48720.00000  0   -2601608.490    4880343.374   -5587548.754
10 0 59844  48960.00000  0   -4058937.144    4540237.768   -4970710.937
10 0 59844  49200.00000  0   -5341378.143    4035938.807   -4119626.186
10 0 59844  49440.00000  0   -6394265.876    3383776.987   -3074242.690
10 0 59844  49680.00000  0   -7172944.530    2605318.984   -1883760.795
10 0 59844  49920.00000  0   -7644763.208    1726762.653    -604324.807
10 0 59844  50160.00000  0   -7790530.128     778148.046     703653.434
10 0 59844  50400.00000  0   -7605334.552    -207596.315    1978400.092
10 0 59844  50640.00000  0   -7098691.394   -1195736.105    3159753.571
10 0 59844  50880.00000  0   -6294008.277   -2150901.737    4192048.584
10 0 59844  51120.00000  0   -5227415.331   -3038302.624    5026757.484
10 0 59844  51360.00000  0   -3946036.246   -3824940.268    5624755.906
10 0 59844  51600.00000  0   -2505809.177   -4480779.817    5958113.201
10 0 59844  51840.00000  0    -968974.999   -4979846.839    6011344.075
10 0 59844  52080.00000  0     598651.694   -5301221.693    5782085.477
10 0 59844  52320.00000  0    2130516.990   -5429903.825    5281178.741
10 0 59844  52560.00000  0    3562154.593   -5357519.319    4532160.669
10 0 59844  52800.00000  0    4833905.510   -5082841.625    3570184.493
10 0 59844  53040.00000  0    5893425.872   -4612086.752    2440405.428
10 0 59844  53280.00000  0    6697877.585   -3958948.754    1195890.334
10 0 59844  53520.00000  0    7215698.462   -3144347.977    -104862.921
10 0 59844  53760.00000  0    7427864.535   -2195881.636   -1400682.099
10 0 59844  54000.00000  0    7328578.884   -1146980.150   -2630618.918
10 0 59844  54240.00000  0    6925354.353     -35794.824   -3736836.427
99
